{"type":"FeatureCollection", "features": [
{"type":"Feature","geometry":{"type":"Polygon","coordinates":[[[17.247380651972865,48.012037499344295],[17.335605455230777,48.08088983226448],[17.30707533023527,48.09942937537332],[17.409261531280727,48.16249280770209],[17.431927978577438,48.14471813650616],[17.514245508120684,48.17496702381104],[17.51135463097331,48.22657457532758],[17.473232890410653,48.23509789078379],[17.51370126759983,48.279090895541266],[17.44922740189221,48.31962804832812],[17.477486892849264,48.35259278843092],[17.346453088408072,48.45190171522647],[17.302149336033796,48.46595843038403],[17.355019787460797,48.5066029790721],[17.279659911597086,48.543521028960534],[17.371381341146822,48.60289856838493],[17.36932104001003,48.632169832163896],[17.327610184302667,48.654044348513594],[17.295248170613014,48.60785077638977],[17.233748699222886,48.56943014470045],[17.125235007271,48.54675051473235],[17.103768694897028,48.563404988211694],[16.982958357995585,48.551561717192804],[16.949757013314883,48.53582308220311],[16.85265548159031,48.45118877568769],[16.84526775937167,48.349773186872234],[16.894733240887273,48.30985561851135],[16.960905210441187,48.22247889409612],[16.976189832934274,48.17219205682433],[17.092664639054426,48.099663640367325],[17.067377095521174,48.031455997160705],[17.11001399912948,48.03125060895383],[17.160727701518347,48.00668246115876],[17.247380651972865,48.012037499344295]]]},"properties":{"IDN4":1,"NM4":"Bratislavský","Shape_Leng":301080.938383,"Shape_Area":2051332978.99,"VYMERA_ha":205262}},
{"type":"Feature","geometry":{"type":"Polygon","coordinates":[[[17.39633916756929,48.813224766238186],[17.36388277990561,48.81356408618381],[17.245738374565654,48.867702748998376],[17.192275052377727,48.87471186993067],[17.11125949533932,48.83149716426051],[17.08356276753861,48.78270735861307],[17.0457368694241,48.766238920653656],[16.967326587624598,48.667461112360186],[16.933575945769682,48.600646858831595],[16.949757013314883,48.53582308220311],[16.982958357995585,48.551561717192804],[17.103768694897028,48.563404988211694],[17.125235007271,48.54675051473235],[17.233748699222886,48.56943014470045],[17.295248170613014,48.60785077638977],[17.327610184302667,48.654044348513594],[17.36932104001003,48.632169832163896],[17.371381341146822,48.60289856838493],[17.279659911597086,48.543521028960534],[17.355019787460797,48.5066029790721],[17.302149336033796,48.46595843038403],[17.346453088408072,48.45190171522647],[17.477486892849264,48.35259278843092],[17.44922740189221,48.31962804832812],[17.51370126759983,48.279090895541266],[17.473232890410653,48.23509789078379],[17.51135463097331,48.22657457532758],[17.514245508120684,48.17496702381104],[17.431927978577438,48.14471813650616],[17.409261531280727,48.16249280770209],[17.30707533023527,48.09942937537332],[17.335605455230777,48.08088983226448],[17.247380651972865,48.012037499344295],[17.335009336309998,47.992944219397344],[17.432482573846453,47.920802578138726],[17.453050531859926,47.88590856266966],[17.542829289975987,47.85263200971588],[17.567062561596448,47.81539225057567],[17.607840858251873,47.82205014820987],[17.705346434761644,47.75900368731978],[17.799719659569185,47.829608276105944],[17.80762255358997,47.870615624083584],[17.887404081538886,47.91100343954949],[17.873035770752356,47.963321666861894],[17.871376331751506,48.053112519270115],[17.802542140503473,48.076156308571456],[17.820047801793173,48.10576358474946],[17.77761829699076,48.13956713635318],[17.881972755469764,48.21493846647594],[17.85213885233573,48.23296213888614],[17.83615330239728,48.29048645362618],[17.87046678227162,48.35747684555075],[17.960810046735556,48.465576583539075],[17.889608250308157,48.50498588162314],[17.846437253765984,48.514029039744095],[17.90136393585057,48.59268033250233],[17.95282667567651,48.58302616467188],[17.9790761833779,48.61252936590498],[17.865142884361322,48.638801445549994],[17.78144473143434,48.64060262294414],[17.70164429668461,48.6825049615388],[17.625465580813,48.6444822182573],[17.533099629978516,48.626627241157216],[17.470369506803785,48.697303494034394],[17.492637934971402,48.73428245641011],[17.472794430524534,48.760845623547645],[17.370467744488295,48.772037918593234],[17.39633916756929,48.813224766238186]]]},"properties":{"IDN4":2,"NM4":"Trnavský","Shape_Leng":572107.068208,"Shape_Area":4144967863.67,"VYMERA_ha":414642}},
{"type":"Feature","geometry":{"type":"Polygon","coordinates":[[[18.826316918527226,48.74403288756355],[18.753738161872278,48.824946202225796],[18.697963442995476,48.84960679016112],[18.707472269469246,48.89845755092319],[18.694540620335978,48.95915327196532],[18.58464779911711,48.966630292124876],[18.52339122310125,48.9370338201466],[18.509468170988818,48.9823590048645],[18.569626969956225,48.998079291052996],[18.599372286187023,49.02401843465382],[18.59891434091372,49.07272336078556],[18.574910870605272,49.14316702095421],[18.464156810938157,49.19334389998712],[18.46430707430841,49.20455445996975],[18.37341039536076,49.318967371548595],[18.322614021060573,49.315094302230726],[18.184033528931398,49.28698609671423],[18.10674902548485,49.134179147162854],[18.115935437301935,49.09213400289973],[18.0820374335966,49.04615737818567],[18.024467467226923,49.02122509568488],[17.92431112662102,49.01995750913331],[17.885302159903155,48.92767460664278],[17.781310136022043,48.92527586982619],[17.702974947433198,48.86011799801285],[17.63297106172959,48.854894114882406],[17.588875971625015,48.82519215098238],[17.51994141433051,48.812772036484176],[17.477478416559695,48.84133273527009],[17.43585066046606,48.84057626086376],[17.39633916756929,48.813224766238186],[17.370467744488295,48.772037918593234],[17.472794430524534,48.760845623547645],[17.492637934971402,48.73428245641011],[17.470369506803785,48.697303494034394],[17.533099629978516,48.626627241157216],[17.625465580813,48.6444822182573],[17.70164429668461,48.6825049615388],[17.78144473143434,48.64060262294414],[17.865142884361322,48.638801445549994],[17.9790761833779,48.61252936590498],[18.014200995713065,48.62956997513319],[17.990896172089364,48.70569883827013],[18.10524319156841,48.696899580354106],[18.164627713263982,48.64287505545689],[18.25606149899473,48.60934809244105],[18.21429219963923,48.576786423165764],[18.285623177498707,48.54086972666892],[18.311330448630635,48.49687899895802],[18.38706032007172,48.500704487143565],[18.478632838432404,48.54858898329731],[18.59765682118717,48.5752574478556],[18.656465815400153,48.63990153119441],[18.714136510178562,48.648257286454424],[18.76274251076933,48.697158174383944],[18.8068792341481,48.71209248994871],[18.826316918527226,48.74403288756355]]]},"properties":{"IDN4":3,"NM4":"Trenčiansky","Shape_Leng":476667.448511,"Shape_Area":4500991656.24,"VYMERA_ha":450184}},
{"type":"Feature","geometry":{"type":"Polygon","coordinates":[[[18.478632838432404,48.54858898329731],[18.38706032007172,48.500704487143565],[18.311330448630635,48.49687899895802],[18.285623177498707,48.54086972666892],[18.21429219963923,48.576786423165764],[18.25606149899473,48.60934809244105],[18.164627713263982,48.64287505545689],[18.10524319156841,48.696899580354106],[17.990896172089364,48.70569883827013],[18.014200995713065,48.62956997513319],[17.9790761833779,48.61252936590498],[17.95282667567651,48.58302616467188],[17.90136393585057,48.59268033250233],[17.846437253765984,48.514029039744095],[17.889608250308157,48.50498588162314],[17.960810046735556,48.465576583539075],[17.87046678227162,48.35747684555075],[17.83615330239728,48.29048645362618],[17.85213885233573,48.23296213888614],[17.881972755469764,48.21493846647594],[17.77761829699076,48.13956713635318],[17.820047801793173,48.10576358474946],[17.802542140503473,48.076156308571456],[17.871376331751506,48.053112519270115],[17.873035770752356,47.963321666861894],[17.887404081538886,47.91100343954949],[17.80762255358997,47.870615624083584],[17.799719659569185,47.829608276105944],[17.705346434761644,47.75900368731978],[17.781163662908387,47.73930645100838],[17.89470185827407,47.7393800421927],[17.964600813261363,47.75568714014457],[18.009528756597597,47.74816781895352],[18.089587984371217,47.75630268551068],[18.172660490494007,47.74113396640077],[18.29002112045447,47.731185629632975],[18.429861810216153,47.75578192590247],[18.490382562296414,47.75276896164956],[18.5659270396848,47.76609105934428],[18.660747509054705,47.760768677529576],[18.72490282802438,47.788551827153],[18.739503053373305,47.81312779980169],[18.791266255236913,47.82266560365746],[18.821657296133765,47.85049195836053],[18.76375474549274,47.87139634232417],[18.75797319786126,47.920349692982754],[18.768397428507296,47.98509566878443],[18.81590621344978,47.99366539558567],[18.8331917871097,48.048223034387256],[18.960053929803642,48.05857882192458],[19.01429275708083,48.07775169877451],[19.066535052352954,48.135212522168416],[19.049450671070502,48.160570115479814],[19.072035463191334,48.194140041366566],[18.986567819273855,48.187394724313954],[18.931588705649027,48.158729090738035],[18.870666896702247,48.16139184763334],[18.800826265550747,48.18770445015815],[18.808690215644823,48.22989380461519],[18.852449287839033,48.305813354772575],[18.81051559275774,48.37051184843005],[18.735060561227932,48.415525453092926],[18.675490266011366,48.35505500932001],[18.571200149959825,48.346575494312745],[18.560602260777827,48.41818840585468],[18.523788515385764,48.45585470832219],[18.538779055416594,48.499076157922495],[18.478632838432404,48.54858898329731]]]},"properties":{"IDN4":4,"NM4":"Nitriansky","Shape_Leng":560235.593628,"Shape_Area":6342499927.81,"VYMERA_ha":634373}},
{"type":"Feature","geometry":{"type":"Polygon","coordinates":[[[19.883910288670993,49.204117088549125],[19.84465897465642,49.19500758231118],[19.763090543433375,49.20752311082344],[19.804504831716418,49.32000238136842],[19.790592183386106,49.41062763595722],[19.699768441269548,49.39962170241405],[19.634641897315422,49.41245923998303],[19.64859963212733,49.43531070702013],[19.580583772175302,49.46116453590456],[19.530459929821625,49.53571545274136],[19.52934563336847,49.572965312880555],[19.478421522051004,49.58797629856813],[19.46739273128145,49.613710503091795],[19.37137876701739,49.56739296109322],[19.36493062818331,49.53772605529524],[19.281529041805268,49.535271874314155],[19.233282313677957,49.51044592969223],[19.22532207156102,49.45427173622768],[19.178393210850512,49.41365425134151],[19.107291509935294,49.40364646573118],[18.989048549136946,49.43099525920008],[18.941678972745493,49.51886460897029],[18.812388760427883,49.51634502208325],[18.743916827943387,49.4886463029102],[18.710427875788927,49.5024820881761],[18.61776552433001,49.49503678224716],[18.545768040438542,49.50048671044177],[18.547968397200453,49.46783981662085],[18.476120820554332,49.40886611774559],[18.408929381053444,49.389878593889534],[18.415578506407623,49.367531828696784],[18.378928130675103,49.33052974788677],[18.322614021060573,49.315094302230726],[18.37341039536076,49.318967371548595],[18.46430707430841,49.20455445996975],[18.464156810938157,49.19334389998712],[18.574910870605272,49.14316702095421],[18.59891434091372,49.07272336078556],[18.599372286187023,49.02401843465382],[18.569626969956225,48.998079291052996],[18.509468170988818,48.9823590048645],[18.52339122310125,48.9370338201466],[18.58464779911711,48.966630292124876],[18.694540620335978,48.95915327196532],[18.707472269469246,48.89845755092319],[18.697963442995476,48.84960679016112],[18.753738161872278,48.824946202225796],[18.826316918527226,48.74403288756355],[18.881336449158255,48.76974188227059],[18.923482417430453,48.74112715250233],[18.988629293788186,48.74562971991628],[19.015941264170895,48.79062359169246],[18.993452047488915,48.843459799630224],[19.049538677704213,48.8833727069359],[19.08101362020147,48.87458597505134],[19.244513647050084,48.895067124997674],[19.301979171226332,48.86083220860523],[19.37713020425414,48.92155226320444],[19.533055836876677,48.946444626766706],[19.64023347411299,48.93634551089353],[19.744580460986313,48.89678131782343],[19.804322647199317,48.91549819611252],[19.992222184698182,48.90744014993065],[20.026546856679357,48.911311113249184],[20.02314727001396,48.96656035403721],[19.9636876039349,49.0096078434509],[20.01525985771368,49.015913781209804],[20.037726772189476,49.10824819429454],[19.963923148156244,49.11255712581098],[19.883910288670993,49.204117088549125]]]},"properties":{"IDN4":5,"NM4":"Žilinský","Shape_Leng":571729.972125,"Shape_Area":6806060876.33,"VYMERA_ha":680850}},
{"type":"Feature","geometry":{"type":"Polygon","coordinates":[[[19.992222184698182,48.90744014993065],[19.804322647199317,48.91549819611252],[19.744580460986313,48.89678131782343],[19.64023347411299,48.93634551089353],[19.533055836876677,48.946444626766706],[19.37713020425414,48.92155226320444],[19.301979171226332,48.86083220860523],[19.244513647050084,48.895067124997674],[19.08101362020147,48.87458597505134],[19.049538677704213,48.8833727069359],[18.993452047488915,48.843459799630224],[19.015941264170895,48.79062359169246],[18.988629293788186,48.74562971991628],[18.923482417430453,48.74112715250233],[18.881336449158255,48.76974188227059],[18.826316918527226,48.74403288756355],[18.8068792341481,48.71209248994871],[18.76274251076933,48.697158174383944],[18.714136510178562,48.648257286454424],[18.656465815400153,48.63990153119441],[18.59765682118717,48.5752574478556],[18.478632838432404,48.54858898329731],[18.538779055416594,48.499076157922495],[18.523788515385764,48.45585470832219],[18.560602260777827,48.41818840585468],[18.571200149959825,48.346575494312745],[18.675490266011366,48.35505500932001],[18.735060561227932,48.415525453092926],[18.81051559275774,48.37051184843005],[18.852449287839033,48.305813354772575],[18.808690215644823,48.22989380461519],[18.800826265550747,48.18770445015815],[18.870666896702247,48.16139184763334],[18.931588705649027,48.158729090738035],[18.986567819273855,48.187394724313954],[19.072035463191334,48.194140041366566],[19.049450671070502,48.160570115479814],[19.066535052352954,48.135212522168416],[19.01429275708083,48.07775169877451],[19.06538581272308,48.06462509092232],[19.127562499270308,48.07369778633238],[19.242158616664362,48.05380028472028],[19.300870558169162,48.0882538038524],[19.448430232653728,48.10015067254906],[19.479167955896823,48.09490938208921],[19.512893172741006,48.15514141302219],[19.5125998717067,48.18194301473762],[19.630750177024666,48.25003352088819],[19.670805584797467,48.23814450945842],[19.70651201841185,48.20096665740154],[19.760628550185793,48.213747172199646],[19.805201315090212,48.18368768891896],[19.898661344205358,48.16626415231948],[19.92928016506709,48.13006115293526],[19.97430934451405,48.16595447728073],[20.06995275589506,48.191647955602505],[20.153737540799913,48.250203146572694],[20.195473611585527,48.248418314948665],[20.249641371551757,48.279045533150004],[20.290683863799032,48.26152717492983],[20.41175367001396,48.36966758179105],[20.4178474620104,48.42002888223013],[20.463872923903324,48.46389617805581],[20.393960533964375,48.45660257158122],[20.30635195714192,48.47960798490946],[20.30260388610121,48.51881335909246],[20.332038187971886,48.53823115297047],[20.355286750489743,48.59486382699172],[20.303720101925197,48.623422324098094],[20.271260023990802,48.68785636313302],[20.18225045273754,48.728160650048274],[20.207579565445823,48.773498600157716],[20.197136685153783,48.81851865914476],[20.267414055989,48.87400548574495],[20.175619877509604,48.907907655826826],[20.158024626986357,48.8891366610713],[19.992222184698182,48.90744014993065]]]},"properties":{"IDN4":6,"NM4":"Banskobystrický","Shape_Leng":643180.221203,"Shape_Area":9452745861.3,"VYMERA_ha":945402}},
{"type":"Feature","geometry":{"type":"Polygon","coordinates":[[[22.382787643917393,48.86197511837106],[22.421061391072186,48.884467874807534],[22.428231973191508,48.93160225722792],[22.477254003328156,48.99104747876447],[22.544657609622483,49.006099210779716],[22.555909727613628,49.08745215367747],[22.413832115359693,49.10194543211555],[22.369617341219524,49.14533258051956],[22.320485388285206,49.1354467919798],[22.246189268611086,49.153138632839045],[22.12993741690129,49.20010234942518],[22.03018968650325,49.225412009998635],[22.034965657341612,49.275510583841374],[21.933998442628386,49.345992149619676],[21.858353987237017,49.368861260159576],[21.840707435907156,49.391131591729064],[21.763361163704616,49.383349746041695],[21.699341843192478,49.41839681926687],[21.65803815608873,49.417530626261986],[21.63092347690992,49.44719298827269],[21.563964463188235,49.441149781939366],[21.511140653744388,49.41963687764476],[21.434061063974177,49.41217473927874],[21.342498712344675,49.45089481974963],[21.27750951833336,49.46083446391087],[21.192108302490848,49.40089047072443],[21.124008374602088,49.436479690901514],[21.047415462949925,49.415416488819346],[21.104086597162546,49.376302518802625],[21.042527590991753,49.36478377675582],[20.969861254444744,49.309803415473645],[20.9113176811148,49.306174090634116],[20.865530131390862,49.347392022690066],[20.763524727377597,49.37080404000869],[20.72290837905106,49.419566879689626],[20.65969694240738,49.40340229570641],[20.61126329858224,49.412368489527964],[20.5755126069391,49.37602234780768],[20.476255214122567,49.413984998658485],[20.429795228095024,49.415985765775886],[20.33126724555262,49.39135411662103],[20.323643012760353,49.351735874999875],[20.24249584658517,49.35079182596507],[20.190092373456597,49.3382833508647],[20.13333643261093,49.2991745319317],[20.10240679158416,49.25305589476981],[20.076735912650143,49.17848227043374],[20.004976753532937,49.22032459144679],[19.919251995952266,49.23572379451113],[19.883910288670993,49.204117088549125],[19.963923148156244,49.11255712581098],[20.037726772189476,49.10824819429454],[20.01525985771368,49.015913781209804],[19.9636876039349,49.0096078434509],[20.02314727001396,48.96656035403721],[20.026546856679357,48.911311113249184],[19.992222184698182,48.90744014993065],[20.158024626986357,48.8891366610713],[20.175619877509604,48.907907655826826],[20.267414055989,48.87400548574495],[20.342224582968413,48.92359093872531],[20.33135352810397,48.96640022452976],[20.426797054881437,49.00259143841197],[20.48171517361474,48.98220918690335],[20.505731934299295,49.00701090762054],[20.630938945250048,48.95239250277259],[20.689060034907,48.977485407916646],[20.770072369437138,48.96748810241235],[20.774271229571497,48.99767468424883],[20.919644611770845,48.963621956847604],[20.990119552665426,48.93593974846111],[21.021231782270767,48.906079665522086],[21.137217564870387,48.900476696207136],[21.19692848459232,48.88444479329433],[21.285254799040647,48.811300926241536],[21.316786922958176,48.83644748343678],[21.36719917964274,48.837984568796394],[21.373804548646863,48.88041056212385],[21.450117166374636,48.87133576790973],[21.475490578280684,48.88296919954739],[21.541505389358715,48.79396918794554],[21.6156716325131,48.773459033855964],[21.65949834139813,48.77980406509254],[21.71239049511911,48.76390206479292],[21.79126582636167,48.79193625695042],[21.78709137076738,48.89575229505494],[21.884957323767384,48.88931955077326],[21.94655633958541,48.85169039433027],[22.02980222925384,48.83859338625158],[22.131529841013396,48.844573997273216],[22.125731793905207,48.886850528589896],[22.188558415075946,48.92902861674172],[22.229074745113486,48.927504324470675],[22.257524595088558,48.86565505915443],[22.319790241865228,48.87149587504551],[22.382787643917393,48.86197511837106]]]},"properties":{"IDN4":7,"NM4":"Prešovský","Shape_Leng":794091.776391,"Shape_Area":8971167884.34,"VYMERA_ha":897329}},
{"type":"Feature","geometry":{"type":"Polygon","coordinates":[[[22.382787643917393,48.86197511837106],[22.319790241865228,48.87149587504551],[22.257524595088558,48.86565505915443],[22.229074745113486,48.927504324470675],[22.188558415075946,48.92902861674172],[22.125731793905207,48.886850528589896],[22.131529841013396,48.844573997273216],[22.02980222925384,48.83859338625158],[21.94655633958541,48.85169039433027],[21.884957323767384,48.88931955077326],[21.78709137076738,48.89575229505494],[21.79126582636167,48.79193625695042],[21.71239049511911,48.76390206479292],[21.65949834139813,48.77980406509254],[21.6156716325131,48.773459033855964],[21.541505389358715,48.79396918794554],[21.475490578280684,48.88296919954739],[21.450117166374636,48.87133576790973],[21.373804548646863,48.88041056212385],[21.36719917964274,48.837984568796394],[21.316786922958176,48.83644748343678],[21.285254799040647,48.811300926241536],[21.19692848459232,48.88444479329433],[21.137217564870387,48.900476696207136],[21.021231782270767,48.906079665522086],[20.990119552665426,48.93593974846111],[20.919644611770845,48.963621956847604],[20.774271229571497,48.99767468424883],[20.770072369437138,48.96748810241235],[20.689060034907,48.977485407916646],[20.630938945250048,48.95239250277259],[20.505731934299295,49.00701090762054],[20.48171517361474,48.98220918690335],[20.426797054881437,49.00259143841197],[20.33135352810397,48.96640022452976],[20.342224582968413,48.92359093872531],[20.267414055989,48.87400548574495],[20.197136685153783,48.81851865914476],[20.207579565445823,48.773498600157716],[20.18225045273754,48.728160650048274],[20.271260023990802,48.68785636313302],[20.303720101925197,48.623422324098094],[20.355286750489743,48.59486382699172],[20.332038187971886,48.53823115297047],[20.30260388610121,48.51881335909246],[20.30635195714192,48.47960798490946],[20.393960533964375,48.45660257158122],[20.463872923903324,48.46389617805581],[20.504618998713465,48.490062017234685],[20.506435986813944,48.534341226886944],[20.586522933213633,48.53568379547251],[20.713060948850128,48.570311706898245],[20.83628779843266,48.58275515353073],[20.87703351787248,48.55069267738903],[20.915763673228764,48.5599863814197],[20.956123033043074,48.52157821532879],[21.0662451621831,48.52580305724589],[21.128232552636366,48.49230655466745],[21.238761147388768,48.53954796645997],[21.296583509643554,48.52156000721884],[21.327535886494225,48.55937902320322],[21.40727815153375,48.55936123586304],[21.439991946330192,48.585134126304716],[21.518294486152975,48.54680852274453],[21.525149156302703,48.52252618540701],[21.62113586864659,48.492027679913015],[21.622133587820343,48.46604852516524],[21.723268461387374,48.350011498770336],[21.833624483749944,48.333884121375036],[21.85980422179701,48.35750424845935],[22.028220426871567,48.392115820384966],[22.10123011802944,48.376069728082534],[22.155031102075235,48.39863728714968],[22.137596979049768,48.432562045115745],[22.16088952988066,48.567117229463534],[22.18894619522277,48.60973835140579],[22.240424127409025,48.62758107731499],[22.302468351515227,48.67624617286084],[22.339534577283573,48.683762301888606],[22.361721040768266,48.7300687975751],[22.345684164524734,48.76585190998324],[22.387579062609543,48.79990814403343],[22.382787643917393,48.86197511837106]]]},"properties":{"IDN4":8,"NM4":"Košický","Shape_Leng":677283.060524,"Shape_Area":6750398379.74,"VYMERA_ha":675449}}
]}